[{"OBJECT_NAME":"AETHER-7","OBJECT_ID":"2026-004R","EPOCH":"2026-03-09T23:38:02.128704","MEAN_MOTION":14.87800631,"ECCENTRICITY":0.00064671,"INCLINATION":97.8004,"RA_OF_ASC_NODE":69.1783,"ARG_OF_PERICENTER":100.8073,"MEAN_ANOMALY":259.3872,"EPHEMERIS_TYPE":0,"CLASSIFICATION_TYPE":"U","NORAD_CAT_ID":67378,"ELEMENT_SET_NO":999,"REV_AT_EPOCH":853,"BSTAR":0.00014118704,"MEAN_MOTION_DOT":1.235e-5,"MEAN_MOTION_DDOT":0},{"OBJECT_NAME":"FENGYUN 1C DEB","OBJECT_ID":"1999-025BYG","EPOCH":"2026-03-08T09:08:41.796384","MEAN_MOTION":14.70300705,"ECCENTRICITY":0.00756028,"INCLINATION":98.9879,"RA_OF_ASC_NODE":223.3303,"ARG_OF_PERICENTER":335.1653,"MEAN_ANOMALY":24.5918,"EPHEMERIS_TYPE":0,"CLASSIFICATION_TYPE":"U","NORAD_CAT_ID":31541,"ELEMENT_SET_NO":999,"REV_AT_EPOCH":99681,"BSTAR":0.0012643278,"MEAN_MOTION_DOT":7.922e-5,"MEAN_MOTION_DDOT":0}]
